     2.100          NAVIGATION                              RINEX VERSION / TYPE
fic2rin                                 03/19/2013 00:23:07 PGM / RUN BY / DATE
                                                            END OF HEADER
15 13  3 18  4  0  0.0 -.111921224743D-03 -.136424205266D-11  .000000000000D+00
     .570000000000D+02  .772812500000D+02  .490556147918D-08  .170406672138D+01
     .404007732868D-05  .535981939174D-02  .643357634544D-05  .515373175049D+04
     .100800000000D+06 -.130385160446D-07  .185612566544D+01  .409781932831D-07
     .941419315745D+00  .244187500000D+03  .157977895979D+00 -.836641992354D-08
     .450018745087D-10  .100000000000D+01  .173200000000D+04  .000000000000D+00
     .240000000000D+01  .000000000000D+00 -.102445483208D-07  .570000000000D+02
     .936060000000D+05  .400000000000D+01
16 13  3 18  4  0  0.0 -.252615660429D-03  .000000000000D+00  .000000000000D+00
     .930000000000D+02 -.418437500000D+02  .395623622169D-08 -.286769485525D+01
    -.215321779251D-05  .706393702421D-02  .859051942825D-05  .515360790443D+04
     .100800000000D+06 -.137835741043D-06 -.225692080204D+01 -.167638063431D-07
     .983990833111D+00  .228312500000D+03  .480423730891D-01 -.764960435101D-08
     .126076680171D-09  .100000000000D+01  .173200000000D+04  .000000000000D+00
     .240000000000D+01  .000000000000D+00 -.977888703346D-08  .930000000000D+02
     .936060000000D+05  .400000000000D+01
17 13  3 18  4  0  0.0  .392063520849D-04 -.397903932026D-11  .000000000000D+00
     .430000000000D+02 -.157187500000D+02  .455554689967D-08  .235410374180D+01
    -.966712832451D-06  .824923976324D-02  .770576298237D-05  .515359755707D+04
     .100800000000D+06 -.391155481339D-07 -.121904934580D+01 -.122934579849D-06
     .964662633636D+00  .232062500000D+03 -.220865794233D+01 -.790568644643D-08
     .233938315898D-09  .100000000000D+01  .173200000000D+04  .000000000000D+00
     .240000000000D+01  .000000000000D+00 -.102445483208D-07  .430000000000D+02
     .936060000000D+05  .400000000000D+01
18 13  3 18  4  0  0.0  .244421418756D-03  .170530256582D-11  .000000000000D+00
     .510000000000D+02  .242812500000D+02  .496163524345D-08 -.242403829042D+01
     .120885670185D-05  .138739141403D-01  .928156077862D-05  .515377003288D+04
     .100800000000D+06  .521540641785D-07  .837953489543D+00 -.132247805595D-06
     .927836762137D+00  .182031250000D+03 -.212353881460D+01 -.795211695188D-08
    -.104290058385D-09  .100000000000D+01  .173200000000D+04  .000000000000D+00
     .240000000000D+01  .000000000000D+00 -.107102096081D-07  .510000000000D+02
     .936060000000D+05  .400000000000D+01
19 13  3 18  4  0  0.0 -.357297714800D-03 -.318323145621D-11  .000000000000D+00
     .480000000000D+02 -.662500000000D+01  .477555606394D-08  .169347253051D+01
    -.132247805595D-06  .902641285211D-02  .738725066185D-05  .515367644310D+04
     .100800000000D+06 -.651925802231D-07 -.116687184165D+01  .197440385818D-06
     .961941328055D+00  .239156250000D+03  .280834819817D+00 -.817569769348D-08
     .122862260563D-09  .100000000000D+01  .173200000000D+04  .000000000000D+00
     .240000000000D+01  .000000000000D+00 -.149011611938D-07  .480000000000D+02
     .936060000000D+05  .400000000000D+01
20 13  3 18  4  0  0.0  .886600464582D-04  .170530256582D-11  .000000000000D+00
     .510000000000D+02  .332500000000D+02  .506842540598D-08 -.186048312201D+01
     .169500708580D-05  .554628414102D-02  .921636819839D-05  .515378465652D+04
     .100800000000D+06  .165775418282D-06  .784443676645D+00  .428408384323D-07
     .928570697897D+00  .185312500000D+03  .129684531628D+01 -.817748348215D-08
    -.227152318949D-09  .100000000000D+01  .173200000000D+04  .000000000000D+00
     .240000000000D+01  .000000000000D+00 -.791624188423D-08  .510000000000D+02
     .936060000000D+05  .400000000000D+01
21 13  3 18  4  0  0.0 -.286692753434D-03 -.216004991671D-11  .000000000000D+00
     .380000000000D+02 -.114687500000D+02  .531236413843D-08 -.132633603753D+01
    -.501051545143D-06  .200760039734D-01  .643730163574D-05  .515371109962D+04
     .100800000000D+06  .463798642159D-06 -.209969164801D+00  .225380063057D-06
     .931887225346D+00  .235187500000D+03 -.216255998486D+01 -.833034699239D-08
    -.193222334200D-09  .100000000000D+01  .173200000000D+04  .000000000000D+00
     .240000000000D+01  .000000000000D+00 -.111758708954D-07  .380000000000D+02
     .936060000000D+05  .400000000000D+01
22 13  3 18  4  0  0.0  .161432661116D-03  .125055521494D-11  .000000000000D+00
     .110000000000D+03  .251875000000D+02  .506842540598D-08 -.301328346625D+01
     .125542283058D-05  .630931986962D-02  .938773155212D-05  .515365519524D+04
     .100800000000D+06 -.204890966415D-07  .840701598710D+00  .931322574615D-08
     .925576149939D+00  .179687500000D+03 -.204357817155D+01 -.810033741157D-08
    -.143220251413D-09  .100000000000D+01  .173200000000D+04  .000000000000D+00
     .485000000000D+01  .000000000000D+00 -.172294676304D-07  .110000000000D+03
     .936060000000D+05  .400000000000D+01
23 13  3 18  4  0  0.0  .103940721601D-03 -.363797880709D-11  .000000000000D+00
     .240000000000D+02  .679062500000D+02  .460697761340D-08  .123262453361D+01
     .363215804100D-05  .827296357602D-02  .552088022232D-05  .515373974419D+04
     .100800000000D+06 -.875443220139D-07  .189626251993D+01  .147148966789D-06
     .956323825034D+00  .271093750000D+03 -.291400589991D+01 -.821069915143D-08
    -.142863093678D-10  .100000000000D+01  .173200000000D+04  .000000000000D+00
     .240000000000D+01  .000000000000D+00 -.200234353542D-07  .240000000000D+02
     .936060000000D+05  .400000000000D+01
24 13  3 18  4  0  0.0 -.287871807814D-05 -.682121026330D-12  .000000000000D+00
     .340000000000D+02 -.163437500000D+02  .471233914498D-08  .434484731176D+00
    -.877305865288D-06  .806145020761D-03  .407546758652D-05  .515369569778D+04
     .100800000000D+06 -.558793544769D-08  .292278715199D+01  .204890966415D-07
     .959368653487D+00  .301906250000D+03  .246100651994D+00 -.834534761723D-08
    -.485734518507D-10  .100000000000D+01  .173200000000D+04  .000000000000D+00
     .240000000000D+01  .000000000000D+00  .325962901115D-08  .340000000000D+02
     .936060000000D+05  .400000000000D+01
25 13  3 18  4  0  0.0  .788858160377D-04  .341060513165D-11  .000000000000D+00
     .390000000000D+02 -.547187500000D+02  .428696428356D-08 -.153011180990D+01
    -.286474823952D-05  .233399611898D-02  .800751149654D-05  .515357284927D+04
     .100800000000D+06  .484287738800D-07 -.231271554815D+01 -.540167093277D-07
     .972138930609D+00  .232625000000D+03  .558824364912D+00 -.789925760721D-08
     .117862052285D-09  .100000000000D+01  .173200000000D+04  .000000000000D+00
     .240000000000D+01  .000000000000D+00  .558793544769D-08  .390000000000D+02
     .936060000000D+05  .400000000000D+01
26 13  3 18  4  0  0.0 -.624838285148D-04  .146656020661D-10  .000000000000D+00
     .330000000000D+02  .717187500000D+02  .421731852539D-08  .115114194813D+01
     .355020165443D-05  .212623702828D-01  .643357634544D-05  .515366205978D+04
     .100800000000D+06 -.340864062309D-06  .197536321438D+01 -.651925802231D-07
     .979545616087D+00  .268875000000D+03  .122586719212D+01 -.831606068302D-08
     .235724104569D-10  .100000000000D+01  .173200000000D+04  .000000000000D+00
     .240000000000D+01  .000000000000D+00 -.605359673500D-08  .330000000000D+02
     .936060000000D+05  .400000000000D+01
28 13  3 18  4  0  0.0  .241889152676D-03  .341060513165D-11  .000000000000D+00
     .900000000000D+01 -.555625000000D+02  .389051919860D-08 -.312894159698D+01
    -.290386378765D-05  .186221522745D-01  .895932316780D-05  .515364745140D+04
     .100800000000D+06  .324100255966D-06 -.225058597469D+01 -.141561031342D-06
     .982414035636D+00  .213000000000D+03 -.177490125281D+01 -.750352683773D-08
     .989326923723D-10  .100000000000D+01  .173200000000D+04  .000000000000D+00
     .240000000000D+01  .000000000000D+00 -.107102096081D-07  .900000000000D+01
     .936060000000D+05  .400000000000D+01
29 13  3 18  4  0  0.0  .417788047343D-03  .375166564481D-11  .000000000000D+00
     .840000000000D+02 -.166875000000D+02  .461233497941D-08 -.103261540224D+01
    -.804662704468D-06  .196537666488D-02  .736117362976D-05  .515367849350D+04
     .100800000000D+06 -.931322574615D-08 -.121030085576D+01 -.912696123123D-07
     .965282141407D+00  .237218750000D+03 -.108191697329D+01 -.806676458455D-08
     .211437378644D-09  .100000000000D+01  .173200000000D+04  .000000000000D+00
     .240000000000D+01  .000000000000D+00 -.977888703346D-08  .840000000000D+02
     .936060000000D+05  .400000000000D+01
31 13  3 18  4  0  0.0  .306942965835D-03  .159161572810D-11  .000000000000D+00
     .750000000000D+02 -.249062500000D+02  .419124601079D-08 -.453341141032D+00
    -.153109431267D-05  .803733023349D-02  .466778874397D-05  .515355839539D+04
     .100800000000D+06 -.316649675369D-07  .295433516908D+01 -.102445483208D-06
     .980838500661D+00  .296406250000D+03 -.757793022127D+00 -.815355391396D-08
     .253581991279D-10  .100000000000D+01  .173200000000D+04  .000000000000D+00
     .240000000000D+01  .000000000000D+00 -.130385160446D-07  .750000000000D+02
     .936060000000D+05  .400000000000D+01
32 13  3 18  4  0  0.0 -.543958041817D-03 -.295585778076D-11  .000000000000D+00
     .280000000000D+02  .363437500000D+02  .471769651100D-08  .132881416370D+00
     .175647437572D-05  .115717587760D-01  .892579555511D-05  .515373880959D+04
     .100800000000D+06  .163912773132D-06  .922777047837D+00 -.819563865662D-07
     .949712007317D+00  .203437500000D+03 -.384166399878D+00 -.825391523727D-08
    -.165364030933D-09  .100000000000D+01  .173200000000D+04  .000000000000D+00
     .240000000000D+01  .000000000000D+00 -.325962901115D-08  .280000000000D+02
     .936060000000D+05  .400000000000D+01
